{
  "type": "FeatureCollection",
  "features": [
    {
      "type": "Feature",
      "properties": {
        "norad_id": 43823,
        "name": "GEO-KOMPSAT-2A",
        "group": "weather",
        "lat": -0.03245011868732498,
        "lon": 2.8200418124271276,
        "alt_km": 35786.659134502406,
        "timestamp": "2025-12-21T09:37:22.291394+00:00",
        "meta_object_name": "GEO-KOMPSAT-2A",
        "meta_object_id": "2018-100A",
        "meta_epoch": "2025-12-21T00:06:46.848096",
        "meta_mean_motion": 1.00270971,
        "meta_eccentricity": 4.15e-05,
        "meta_inclination": 0.0521,
        "meta_ra_of_asc_node": 137.0554,
        "meta_arg_of_pericenter": 325.2122,
        "meta_mean_anomaly": 117.5286,
        "meta_ephemeris_type": 0,
        "meta_classification_type": "U",
        "meta_norad_cat_id": 43823,
        "meta_element_set_no": 999,
        "meta_rev_at_epoch": 2584,
        "meta_bstar": 0,
        "meta_mean_motion_dot": -3.2e-06,
        "meta_mean_motion_ddot": 0,
        "tle_line1": "1 43823U 18100A   25355.00470889 -.00000320  00000+0  00000+0 0  9990",
        "tle_line2": "2 43823   0.0521 137.0554 0000415 325.2122 117.5286  1.00270971 25848"
      },
      "geometry": {
        "type": "Point",
        "coordinates": [
          2.8200418124271276,
          -0.03245011868732498
        ]
      }
    },
    {
      "type": "Feature",
      "properties": {
        "norad_id": 44387,
        "name": "METEOR-M2 2",
        "group": "weather",
        "lat": 58.76676457029124,
        "lon": 170.2057763412416,
        "alt_km": 803.9860791214187,
        "timestamp": "2025-12-21T09:37:22.291406+00:00",
        "meta_object_name": "METEOR-M2 2",
        "meta_object_id": "2019-038A",
        "meta_epoch": "2025-12-21T05:41:21.998688",
        "meta_mean_motion": 14.24294795,
        "meta_eccentricity": 0.0001638,
        "meta_inclination": 98.8972,
        "meta_ra_of_asc_node": 335.0698,
        "meta_arg_of_pericenter": 130.4971,
        "meta_mean_anomaly": 229.635,
        "meta_ephemeris_type": 0,
        "meta_classification_type": "U",
        "meta_norad_cat_id": 44387,
        "meta_element_set_no": 999,
        "meta_rev_at_epoch": 33596,
        "meta_bstar": 7.3275e-05,
        "meta_mean_motion_dot": 1.23e-06,
        "meta_mean_motion_ddot": 0,
        "tle_line1": "1 44387U 19038A   25355.23706017  .00000123  00000+0  73275-4 0  9996",
        "tle_line2": "2 44387  98.8972 335.0698 0001638 130.4971 229.6350 14.24294795335968"
      },
      "geometry": {
        "type": "Point",
        "coordinates": [
          170.2057763412416,
          58.76676457029124
        ]
      }
    },
    {
      "type": "Feature",
      "properties": {
        "norad_id": 47719,
        "name": "ARKTIKA-M 1",
        "group": "weather",
        "lat": 55.16919505165192,
        "lon": -143.70328518160022,
        "alt_km": 30975.86081453173,
        "timestamp": "2025-12-21T09:37:22.291419+00:00",
        "meta_object_name": "ARKTIKA-M 1",
        "meta_object_id": "2021-016A",
        "meta_epoch": "2025-12-21T01:10:59.170944",
        "meta_mean_motion": 2.00630317,
        "meta_eccentricity": 0.7208476,
        "meta_inclination": 63.1763,
        "meta_ra_of_asc_node": 82.8606,
        "meta_arg_of_pericenter": 269.1559,
        "meta_mean_anomaly": 15.5506,
        "meta_ephemeris_type": 0,
        "meta_classification_type": "U",
        "meta_norad_cat_id": 47719,
        "meta_element_set_no": 999,
        "meta_rev_at_epoch": 3521,
        "meta_bstar": 0,
        "meta_mean_motion_dot": -1e-06,
        "meta_mean_motion_ddot": 0,
        "tle_line1": "1 47719U 21016A   25355.04929596 -.00000100  00000+0  00000+0 0  9992",
        "tle_line2": "2 47719  63.1763  82.8606 7208476 269.1559  15.5506  2.00630317 35212"
      },
      "geometry": {
        "type": "Point",
        "coordinates": [
          -143.70328518160022,
          55.16919505165192
        ]
      }
    },
    {
      "type": "Feature",
      "properties": {
        "norad_id": 49008,
        "name": "FENGYUN 3E",
        "group": "weather",
        "lat": -57.22394864104115,
        "lon": 9.653667073693176,
        "alt_km": 832.8654387819033,
        "timestamp": "2025-12-21T09:37:22.291430+00:00",
        "meta_object_name": "FENGYUN 3E",
        "meta_object_id": "2021-062A",
        "meta_epoch": "2025-12-21T04:49:23.698272",
        "meta_mean_motion": 14.19882144,
        "meta_eccentricity": 7.84e-05,
        "meta_inclination": 98.7469,
        "meta_ra_of_asc_node": 355.6218,
        "meta_arg_of_pericenter": 205.6187,
        "meta_mean_anomaly": 154.4951,
        "meta_ephemeris_type": 0,
        "meta_classification_type": "U",
        "meta_norad_cat_id": 49008,
        "meta_element_set_no": 999,
        "meta_rev_at_epoch": 23132,
        "meta_bstar": 0.00019144,
        "meta_mean_motion_dot": 3.62e-06,
        "meta_mean_motion_ddot": 0,
        "tle_line1": "1 49008U 21062A   25355.20096873  .00000362  00000+0  19144-3 0  9999",
        "tle_line2": "2 49008  98.7469 355.6218 0000784 205.6187 154.4951 14.19882144231326"
      },
      "geometry": {
        "type": "Point",
        "coordinates": [
          9.653667073693176,
          -57.22394864104115
        ]
      }
    },
    {
      "type": "Feature",
      "properties": {
        "norad_id": 51850,
        "name": "GOES 18",
        "group": "weather",
        "lat": -0.006751237748661187,
        "lon": 97.56421520291082,
        "alt_km": 35787.061638209685,
        "timestamp": "2025-12-21T09:37:22.291445+00:00",
        "meta_object_name": "GOES 18",
        "meta_object_id": "2022-021A",
        "meta_epoch": "2025-12-21T02:16:26.927040",
        "meta_mean_motion": 1.00272026,
        "meta_eccentricity": 2.75e-05,
        "meta_inclination": 0.0204,
        "meta_ra_of_asc_node": 181.2197,
        "meta_arg_of_pericenter": 118.9734,
        "meta_mean_anomaly": 46.8456,
        "meta_ephemeris_type": 0,
        "meta_classification_type": "U",
        "meta_norad_cat_id": 51850,
        "meta_element_set_no": 999,
        "meta_rev_at_epoch": 480,
        "meta_bstar": 0,
        "meta_mean_motion_dot": 1.2e-06,
        "meta_mean_motion_ddot": 0,
        "tle_line1": "1 51850U 22021A   25355.09475610  .00000120  00000+0  00000+0 0  9999",
        "tle_line2": "2 51850   0.0204 181.2197 0000275 118.9734  46.8456  1.00272026  4808"
      },
      "geometry": {
        "type": "Point",
        "coordinates": [
          97.56421520291082,
          -0.006751237748661187
        ]
      }
    },
    {
      "type": "Feature",
      "properties": {
        "norad_id": 54234,
        "name": "NOAA 21 (JPSS-2)",
        "group": "weather",
        "lat": -61.6843668878642,
        "lon": -51.79431202659355,
        "alt_km": 833.9373628829553,
        "timestamp": "2025-12-21T09:37:22.291456+00:00",
        "meta_object_name": "NOAA 21 (JPSS-2)",
        "meta_object_id": "2022-150A",
        "meta_epoch": "2025-12-21T03:09:08.347968",
        "meta_mean_motion": 14.19526263,
        "meta_eccentricity": 0.0001847,
        "meta_inclination": 98.7474,
        "meta_ra_of_asc_node": 291.3352,
        "meta_arg_of_pericenter": 21.2149,
        "meta_mean_anomaly": 338.9103,
        "meta_ephemeris_type": 0,
        "meta_classification_type": "U",
        "meta_norad_cat_id": 54234,
        "meta_element_set_no": 999,
        "meta_rev_at_epoch": 16128,
        "meta_bstar": 4.2537e-05,
        "meta_mean_motion_dot": 4.6e-07,
        "meta_mean_motion_ddot": 0,
        "tle_line1": "1 54234U 22150A   25355.13134662  .00000046  00000+0  42537-4 0  9998",
        "tle_line2": "2 54234  98.7474 291.3352 0001847  21.2149 338.9103 14.19526263161287"
      },
      "geometry": {
        "type": "Point",
        "coordinates": [
          -51.79431202659355,
          -61.6843668878642
        ]
      }
    },
    {
      "type": "Feature",
      "properties": {
        "norad_id": 54743,
        "name": "METEOSAT-12 (MTG-I1)",
        "group": "weather",
        "lat": -0.3607127956032987,
        "lon": -125.76575270073134,
        "alt_km": 35780.97530009092,
        "timestamp": "2025-12-21T09:37:22.291468+00:00",
        "meta_object_name": "METEOSAT-12 (MTG-I1)",
        "meta_object_id": "2022-170C",
        "meta_epoch": "2025-12-21T03:32:38.808096",
        "meta_mean_motion": 1.00270641,
        "meta_eccentricity": 0.0001495,
        "meta_inclination": 0.6952,
        "meta_ra_of_asc_node": 24.9849,
        "meta_arg_of_pericenter": 239.5817,
        "meta_mean_anomaly": 238.2565,
        "meta_ephemeris_type": 0,
        "meta_classification_type": "U",
        "meta_norad_cat_id": 54743,
        "meta_element_set_no": 999,
        "meta_rev_at_epoch": 1119,
        "meta_bstar": 0,
        "meta_mean_motion_dot": 1.5e-07,
        "meta_mean_motion_ddot": 0,
        "tle_line1": "1 54743U 22170C   25355.14767139  .00000015  00000+0  00000+0 0  9997",
        "tle_line2": "2 54743   0.6952  24.9849 0001495 239.5817 238.2565  1.00270641 11191"
      },
      "geometry": {
        "type": "Point",
        "coordinates": [
          -125.76575270073134,
          -0.3607127956032987
        ]
      }
    }
  ]
}